{"type": "FeatureCollection", "features": [ {"type": "Feature", "properties": {"norad_id": 35480, "name": "IRIDIUM 33 DEB", "group": "iridium-33-debris", "lat": -56.388387444679005, "lon": 23.940518862619857, "alt_km": 744.5494522882573, "timestamp": "2025-12-02T07:10:09.501346+00:00", "meta": {"OBJECT_NAME": "IRIDIUM 33 DEB", "OBJECT_ID": "1997-051QA", "EPOCH": "2025-12-01T03:16:06.301056", "MEAN_MOTION": 14.49682166, "ECCENTRICITY": 0.0015406, "INCLINATION": 86.3582, "RA_OF_ASC_NODE": 29.9424, "ARG_OF_PERICENTER": 139.0611, "MEAN_ANOMALY": 221.1754, "EPHEMERIS_TYPE": 0, "CLASSIFICATION_TYPE": "U", "NORAD_CAT_ID": 35480, "ELEMENT_SET_NO": 999, "REV_AT_EPOCH": 86863, "BSTAR": 0.00060122978, "MEAN_MOTION_DOT": 2.335e-05, "MEAN_MOTION_DDOT": 0}, "tle": {"line1": "1 35480U 97051QA  25335.13618404  .00002335  00000+0  60123-3 0  9994", "line2": "2 35480  86.3582  29.9424 0015406 139.0611 221.1754 14.49682166868631"}}, "geometry": {"type": "Point", "coordinates": [23.940518862619857, -56.388387444679005]}}, {"type": "Feature", "properties": {"norad_id": 35484, "name": "IRIDIUM 33 DEB", "group": "iridium-33-debris", "lat": 86.16508789344726, "lon": 106.01365432034012, "alt_km": 561.4974577230405, "timestamp": "2025-12-02T07:10:09.501363+00:00", "meta": {"OBJECT_NAME": "IRIDIUM 33 DEB", "OBJECT_ID": "1997-051QE", "EPOCH": "2025-12-01T19:32:14.692416", "MEAN_MOTION": 14.97587734, "ECCENTRICITY": 0.0021829, "INCLINATION": 86.3628, "RA_OF_ASC_NODE": 357.8533, "ARG_OF_PERICENTER": 162.6444, "MEAN_ANOMALY": 197.5538, "EPHEMERIS_TYPE": 0, "CLASSIFICATION_TYPE": "U", "NORAD_CAT_ID": 35484, "ELEMENT_SET_NO": 999, "REV_AT_EPOCH": 61852, "BSTAR": 0.0025031, "MEAN_MOTION_DOT": 0.00029486, "MEAN_MOTION_DDOT": 0}, "tle": {"line1": "1 35484U 97051QE  25335.81405894  .00029486  00000+0  25031-2 0  9994", "line2": "2 35484  86.3628 357.8533 0021829 162.6444 197.5538 14.97587734618527"}}, "geometry": {"type": "Point", "coordinates": [106.01365432034012, 86.16508789344726]}}, {"type": "Feature", "properties": {"norad_id": 35488, "name": "IRIDIUM 33 DEB", "group": "iridium-33-debris", "lat": 54.273193165549394, "lon": -49.179369497784904, "alt_km": 595.7228628274679, "timestamp": "2025-12-02T07:10:09.501379+00:00", "meta": {"OBJECT_NAME": "IRIDIUM 33 DEB", "OBJECT_ID": "1997-051QJ", "EPOCH": "2025-12-01T08:14:53.482848", "MEAN_MOTION": 14.82615627, "ECCENTRICITY": 0.00309682, "INCLINATION": 86.3231, "RA_OF_ASC_NODE": 306.1315, "ARG_OF_PERICENTER": 78.8041, "MEAN_ANOMALY": 281.666, "EPHEMERIS_TYPE": 0, "CLASSIFICATION_TYPE": "U", "NORAD_CAT_ID": 35488, "ELEMENT_SET_NO": 999, "REV_AT_EPOCH": 88097, "BSTAR": 0.0016299271, "MEAN_MOTION_DOT": 0.00013268, "MEAN_MOTION_DDOT": 0}, "tle": {"line1": "1 35488U 97051QJ  25335.34367457  .00013268  00000+0  16299-2 0  9995", "line2": "2 35488  86.3231 306.1315 0030968  78.8041 281.6660 14.82615627880979"}}, "geometry": {"type": "Point", "coordinates": [-49.179369497784904, 54.273193165549394]}}, {"type": "Feature", "properties": {"norad_id": 35616, "name": "IRIDIUM 33 DEB", "group": "iridium-33-debris", "lat": -80.13261793978438, "lon": -167.97020716980788, "alt_km": 629.2527902168586, "timestamp": "2025-12-02T07:10:09.501396+00:00", "meta": {"OBJECT_NAME": "IRIDIUM 33 DEB", "OBJECT_ID": "1997-051QN", "EPOCH": "2025-12-01T18:38:49.910784", "MEAN_MOTION": 14.81359224, "ECCENTRICITY": 0.0008619, "INCLINATION": 86.3548, "RA_OF_ASC_NODE": 350.7677, "ARG_OF_PERICENTER": 204.4295, "MEAN_ANOMALY": 155.6519, "EPHEMERIS_TYPE": 0, "CLASSIFICATION_TYPE": "U", "NORAD_CAT_ID": 35616, "ELEMENT_SET_NO": 999, "REV_AT_EPOCH": 87412, "BSTAR": 0.0016385, "MEAN_MOTION_DOT": 0.00012841, "MEAN_MOTION_DDOT": 0}, "tle": {"line1": "1 35616U 97051QN  25335.77696656  .00012841  00000+0  16385-2 0  9993", "line2": "2 35616  86.3548 350.7677 0008619 204.4295 155.6519 14.81359224874125"}}, "geometry": {"type": "Point", "coordinates": [-167.97020716980788, -80.13261793978438]}}, {"type": "Feature", "properties": {"norad_id": 35618, "name": "IRIDIUM 33 DEB", "group": "iridium-33-debris", "lat": 47.150725497837826, "lon": 2.0220008918531436, "alt_km": 692.6012091817856, "timestamp": "2025-12-02T07:10:09.501413+00:00", "meta": {"OBJECT_NAME": "IRIDIUM 33 DEB", "OBJECT_ID": "1997-051QQ", "EPOCH": "2025-11-27T19:27:47.606688", "MEAN_MOTION": 14.52216193, "ECCENTRICITY": 0.00308317, "INCLINATION": 86.3414, "RA_OF_ASC_NODE": 0.0275, "ARG_OF_PERICENTER": 70.0508, "MEAN_ANOMALY": 290.4015, "EPHEMERIS_TYPE": 0, "CLASSIFICATION_TYPE": "U", "NORAD_CAT_ID": 35618, "ELEMENT_SET_NO": 999, "REV_AT_EPOCH": 65177, "BSTAR": 0.00046503481, "MEAN_MOTION_DOT": 1.919e-05, "MEAN_MOTION_DDOT": 0}, "tle": {"line1": "1 35618U 97051QQ  25331.81096767  .00001919  00000+0  46503-3 0  9993", "line2": "2 35618  86.3414   0.0275 0030831  70.0508 290.4015 14.52216193651771"}}, "geometry": {"type": "Point", "coordinates": [2.0220008918531436, 47.150725497837826]}}, {"type": "Feature", "properties": {"norad_id": 35620, "name": "IRIDIUM 33 DEB", "group": "iridium-33-debris", "lat": -32.98345688231185, "lon": 44.20447604560719, "alt_km": 754.071225233246, "timestamp": "2025-12-02T07:10:09.501430+00:00", "meta": {"OBJECT_NAME": "IRIDIUM 33 DEB", "OBJECT_ID": "1997-051QS", "EPOCH": "2025-12-01T10:07:05.856384", "MEAN_MOTION": 14.37391446, "ECCENTRICITY": 0.0145824, "INCLINATION": 86.3886, "RA_OF_ASC_NODE": 222.2249, "ARG_OF_PERICENTER": 296.0647, "MEAN_ANOMALY": 62.56, "EPHEMERIS_TYPE": 0, "CLASSIFICATION_TYPE": "U", "NORAD_CAT_ID": 35620, "ELEMENT_SET_NO": 999, "REV_AT_EPOCH": 59803, "BSTAR": 0.0070563828, "MEAN_MOTION_DOT": 0.00023904, "MEAN_MOTION_DDOT": 0}, "tle": {"line1": "1 35620U 97051QS  25335.42159556  .00023904  00000+0  70564-2 0  9994", "line2": "2 35620  86.3886 222.2249 0145824 296.0647  62.5600 14.37391446598034"}}, "geometry": {"type": "Point", "coordinates": [44.20447604560719, -32.98345688231185]}}, {"type": "Feature", "properties": {"norad_id": 35622, "name": "IRIDIUM 33 DEB", "group": "iridium-33-debris", "lat": -14.124411604875903, "lon": -92.22131327470616, "alt_km": 556.0876947712131, "timestamp": "2025-12-02T07:10:09.501446+00:00", "meta": {"OBJECT_NAME": "IRIDIUM 33 DEB", "OBJECT_ID": "1997-051QU", "EPOCH": "2025-11-30T14:26:56.846112", "MEAN_MOTION": 15.02344133, "ECCENTRICITY": 0.0011317, "INCLINATION": 86.2032, "RA_OF_ASC_NODE": 269.5689, "ARG_OF_PERICENTER": 6.0229, "MEAN_ANOMALY": 169.0452, "EPHEMERIS_TYPE": 0, "CLASSIFICATION_TYPE": "U", "NORAD_CAT_ID": 35622, "ELEMENT_SET_NO": 999, "REV_AT_EPOCH": 87177, "BSTAR": 0.0052905, "MEAN_MOTION_DOT": 0.00070654, "MEAN_MOTION_DDOT": 0}, "tle": {"line1": "1 35622U 97051QU  25334.60204683  .00070654  00000+0  52905-2 0  9990", "line2": "2 35622  86.2032 269.5689 0011317   6.0229 169.0452 15.02344133871771"}}, "geometry": {"type": "Point", "coordinates": [-92.22131327470616, -14.124411604875903]}}, {"type": "Feature", "properties": {"norad_id": 35628, "name": "IRIDIUM 33 DEB", "group": "iridium-33-debris", "lat": 84.10963813317466, "lon": 155.61523448487827, "alt_km": 660.0725146375644, "timestamp": "2025-12-02T07:10:09.501463+00:00", "meta": {"OBJECT_NAME": "IRIDIUM 33 DEB", "OBJECT_ID": "1997-051RA", "EPOCH": "2025-12-01T09:27:48.625056", "MEAN_MOTION": 14.67320327, "ECCENTRICITY": 0.00118206, "INCLINATION": 86.3586, "RA_OF_ASC_NODE": 14.1343, "ARG_OF_PERICENTER": 22.1309, "MEAN_ANOMALY": 338.0413, "EPHEMERIS_TYPE": 0, "CLASSIFICATION_TYPE": "U", "NORAD_CAT_ID": 35628, "ELEMENT_SET_NO": 999, "REV_AT_EPOCH": 86280, "BSTAR": 0.0015830322, "MEAN_MOTION_DOT": 8.967e-05, "MEAN_MOTION_DDOT": 0}, "tle": {"line1": "1 35628U 97051RA  25335.39431279  .00008967  00000+0  15830-2 0  9990", "line2": "2 35628  86.3586  14.1343 0011820  22.1309 338.0413 14.67320327862808"}}, "geometry": {"type": "Point", "coordinates": [155.61523448487827, 84.10963813317466]}}, {"type": "Feature", "properties": {"norad_id": 35631, "name": "IRIDIUM 33 DEB", "group": "iridium-33-debris", "lat": 27.36283361917909, "lon": 27.355100747938682, "alt_km": 740.3976091729019, "timestamp": "2025-12-02T07:10:09.501479+00:00", "meta": {"OBJECT_NAME": "IRIDIUM 33 DEB", "OBJECT_ID": "1997-051RD", "EPOCH": "2025-12-01T09:32:13.809120", "MEAN_MOTION": 14.47260749, "ECCENTRICITY": 0.00179714, "INCLINATION": 86.3683, "RA_OF_ASC_NODE": 25.8593, "ARG_OF_PERICENTER": 152.8458, "MEAN_ANOMALY": 221.75, "EPHEMERIS_TYPE": 0, "CLASSIFICATION_TYPE": "U", "NORAD_CAT_ID": 35631, "ELEMENT_SET_NO": 999, "REV_AT_EPOCH": 87033, "BSTAR": 0.00039861832, "MEAN_MOTION_DOT": 1.48e-05, "MEAN_MOTION_DDOT": 0}, "tle": {"line1": "1 35631U 97051RD  25335.39738205  .00001480  00000+0  39862-3 0  9998", "line2": "2 35631  86.3683  25.8593 0017971 152.8458 221.7500 14.47260749870336"}}, "geometry": {"type": "Point", "coordinates": [27.355100747938682, 27.36283361917909]}}, {"type": "Feature", "properties": {"norad_id": 35680, "name": "IRIDIUM 33 DEB", "group": "iridium-33-debris", "lat": -85.41824689793552, "lon": -32.15597537868974, "alt_km": 746.4296330370289, "timestamp": "2025-12-02T07:10:09.501496+00:00", "meta": {"OBJECT_NAME": "IRIDIUM 33 DEB", "OBJECT_ID": "1997-051RJ", "EPOCH": "2025-11-29T10:20:43.781856", "MEAN_MOTION": 14.20568057, "ECCENTRICITY": 0.01507191, "INCLINATION": 86.102, "RA_OF_ASC_NODE": 27.412, "ARG_OF_PERICENTER": 321.0899, "MEAN_ANOMALY": 55.9975, "EPHEMERIS_TYPE": 0, "CLASSIFICATION_TYPE": "U", "NORAD_CAT_ID": 35680, "ELEMENT_SET_NO": 999, "REV_AT_EPOCH": 60512, "BSTAR": 0.0028317999, "MEAN_MOTION_DOT": 6.843e-05, "MEAN_MOTION_DDOT": 0}, "tle": {"line1": "1 35680U 97051RJ  25333.43106229  .00006843  00000+0  28318-2 0  9991", "line2": "2 35680  86.1020  27.4120 0150719 321.0899  55.9975 14.20568057605124"}}, "geometry": {"type": "Point", "coordinates": [-32.15597537868974, -85.41824689793552]}}]}